ORBVIEW 2 (SEASTAR)     
1 24883U 97037A   25328.02488240  .00000359  00000+0  14143-3 0  9991
2 24883  98.8453 124.6294 0002581  35.4845 324.6511 14.35396516493312
SL-16 R/B               
1 25400U 98043G   25327.85390071  .00000093  00000+0  58003-4 0  9998
2 25400  98.8095 275.5692 0009251 327.4257  32.6351 14.26018657423903
SL-16 R/B               
1 25407U 98045B   25327.55227823  .00000187  00000+0  11832-3 0  9990
2 25407  71.0124  44.7766 0008103 203.6538 156.4214 14.16169460412073
ISS (ZARYA)             
1 25544U 98067A   25328.09312817  .00014217  00000+0  26540-3 0  9995
2 25544  51.6317 234.7759 0003932 161.8932 198.2197 15.49034016539961
CZ-4B R/B               
1 25732U 99025C   25328.05256182  .00000090  00000+0  64546-4 0  9990
2 25732  98.6795   9.7483 0036042 289.2542 126.9252 14.18236873373196
OKEAN-O                 
1 25860U 99039A   25328.06369985  .00000827  00000+0  11597-3 0  9999
2 25860  97.9627  23.9250 0001105  69.5046 290.6284 14.80114438418762
SL-16 R/B               
1 25861U 99039B   25328.14430675  .00000760  00000+0  10359-3 0  9995
2 25861  98.0150  22.2920 0013683 237.0920 122.8977 14.81546900421234
DELTA 2 R/B             
1 25876U 99041E   25328.08951816  .00001006  00000+0  20179-3 0  9997
2 25876  51.7628   2.8917 0504906  36.8093 326.6414 14.11332653348111
HELIOS 1B               
1 25977U 99064A   25327.76312588  .00001929  00000+0  22102-3 0  9997
2 25977  98.1752 221.8674 0002451  68.8631 291.2845 14.87167648669518
TERRA                   
1 25994U 99068A   25328.10907943  .00000586  00000+0  12878-3 0  9991
2 25994  97.9773  20.4742 0003055 135.8826 308.4277 14.60921125379661
SL-16 R/B               
1 26070U 00006B   25328.03474279  .00000077  00000+0  63609-4 0  9998
2 26070  71.0017 319.9878 0017417 334.9364  25.0912 14.15801524333605
TITAN 4B R/B            
1 26474U 00047B   25328.04724906  .00003716  00000+0  24121-3 0  9995
2 26474  67.9901 337.3456 0040559 166.7825 193.4397 15.08584870376970
