CCSDS_OMM_VERS = 2.0
CREATION_DATE  = 
ORIGINATOR     = 

OBJECT_NAME    = ORBVIEW 2 (SEASTAR)
OBJECT_ID      = 1997-037A
CENTER_NAME    = EARTH
REF_FRAME      = TEME
TIME_SYSTEM    = UTC
MEAN_ELEMENT_THEORY = SGP/SGP4

EPOCH          = 2025-11-24T00:35:49.839360
MEAN_MOTION    = 14.35396516
ECCENTRICITY   = .0002581
INCLINATION    = 98.8453
RA_OF_ASC_NODE = 124.6294
ARG_OF_PERICENTER = 35.4845
MEAN_ANOMALY   = 324.6511

EPHEMERIS_TYPE = 0
CLASSIFICATION_TYPE = U
NORAD_CAT_ID   = 24883
ELEMENT_SET_NO = 999
REV_AT_EPOCH   = 49331
BSTAR          = .14143E-3
MEAN_MOTION_DOT = .359E-5
MEAN_MOTION_DDOT = 0

CCSDS_OMM_VERS = 2.0
CREATION_DATE  = 
ORIGINATOR     = 

OBJECT_NAME    = SL-16 R/B
OBJECT_ID      = 1998-043G
CENTER_NAME    = EARTH
REF_FRAME      = TEME
TIME_SYSTEM    = UTC
MEAN_ELEMENT_THEORY = SGP/SGP4

EPOCH          = 2025-11-23T20:29:37.021344
MEAN_MOTION    = 14.26018657
ECCENTRICITY   = .0009251
INCLINATION    = 98.8095
RA_OF_ASC_NODE = 275.5692
ARG_OF_PERICENTER = 327.4257
MEAN_ANOMALY   = 32.6351

EPHEMERIS_TYPE = 0
CLASSIFICATION_TYPE = U
NORAD_CAT_ID   = 25400
ELEMENT_SET_NO = 999
REV_AT_EPOCH   = 42390
BSTAR          = .58003E-4
MEAN_MOTION_DOT = .93E-6
MEAN_MOTION_DDOT = 0

CCSDS_OMM_VERS = 2.0
CREATION_DATE  = 
ORIGINATOR     = 

OBJECT_NAME    = SL-16 R/B
OBJECT_ID      = 1998-045B
CENTER_NAME    = EARTH
REF_FRAME      = TEME
TIME_SYSTEM    = UTC
MEAN_ELEMENT_THEORY = SGP/SGP4

EPOCH          = 2025-11-23T13:15:16.839072
MEAN_MOTION    = 14.16169460
ECCENTRICITY   = .0008103
INCLINATION    = 71.0124
RA_OF_ASC_NODE = 44.7766
ARG_OF_PERICENTER = 203.6538
MEAN_ANOMALY   = 156.4214

EPHEMERIS_TYPE = 0
CLASSIFICATION_TYPE = U
NORAD_CAT_ID   = 25407
ELEMENT_SET_NO = 999
REV_AT_EPOCH   = 41207
BSTAR          = .11832E-3
MEAN_MOTION_DOT = .187E-5
MEAN_MOTION_DDOT = 0

CCSDS_OMM_VERS = 2.0
CREATION_DATE  = 
ORIGINATOR     = 

OBJECT_NAME    = ISS (ZARYA)
OBJECT_ID      = 1998-067A
CENTER_NAME    = EARTH
REF_FRAME      = TEME
TIME_SYSTEM    = UTC
MEAN_ELEMENT_THEORY = SGP/SGP4

EPOCH          = 2025-11-24T02:14:06.273888
MEAN_MOTION    = 15.49034016
ECCENTRICITY   = .0003932
INCLINATION    = 51.6317
RA_OF_ASC_NODE = 234.7759
ARG_OF_PERICENTER = 161.8932
MEAN_ANOMALY   = 198.2197

EPHEMERIS_TYPE = 0
CLASSIFICATION_TYPE = U
NORAD_CAT_ID   = 25544
ELEMENT_SET_NO = 999
REV_AT_EPOCH   = 53996
BSTAR          = .2654E-3
MEAN_MOTION_DOT = .14217E-3
MEAN_MOTION_DDOT = 0

CCSDS_OMM_VERS = 2.0
CREATION_DATE  = 
ORIGINATOR     = 

OBJECT_NAME    = CZ-4B R/B
OBJECT_ID      = 1999-025C
CENTER_NAME    = EARTH
REF_FRAME      = TEME
TIME_SYSTEM    = UTC
MEAN_ELEMENT_THEORY = SGP/SGP4

EPOCH          = 2025-11-24T01:15:41.341248
MEAN_MOTION    = 14.18236873
ECCENTRICITY   = .0036042
INCLINATION    = 98.6795
RA_OF_ASC_NODE = 9.7483
ARG_OF_PERICENTER = 289.2542
MEAN_ANOMALY   = 126.9252

EPHEMERIS_TYPE = 0
CLASSIFICATION_TYPE = U
NORAD_CAT_ID   = 25732
ELEMENT_SET_NO = 999
REV_AT_EPOCH   = 37319
BSTAR          = .64546E-4
MEAN_MOTION_DOT = .9E-6
MEAN_MOTION_DDOT = 0

CCSDS_OMM_VERS = 2.0
CREATION_DATE  = 
ORIGINATOR     = 

OBJECT_NAME    = OKEAN-O
OBJECT_ID      = 1999-039A
CENTER_NAME    = EARTH
REF_FRAME      = TEME
TIME_SYSTEM    = UTC
MEAN_ELEMENT_THEORY = SGP/SGP4

EPOCH          = 2025-11-24T01:31:43.667040
MEAN_MOTION    = 14.80114438
ECCENTRICITY   = .0001105
INCLINATION    = 97.9627
RA_OF_ASC_NODE = 23.9250
ARG_OF_PERICENTER = 69.5046
MEAN_ANOMALY   = 290.6284

EPHEMERIS_TYPE = 0
CLASSIFICATION_TYPE = U
NORAD_CAT_ID   = 25860
ELEMENT_SET_NO = 999
REV_AT_EPOCH   = 41876
BSTAR          = .11597E-3
MEAN_MOTION_DOT = .827E-5
MEAN_MOTION_DDOT = 0

CCSDS_OMM_VERS = 2.0
CREATION_DATE  = 
ORIGINATOR     = 

OBJECT_NAME    = SL-16 R/B
OBJECT_ID      = 1999-039B
CENTER_NAME    = EARTH
REF_FRAME      = TEME
TIME_SYSTEM    = UTC
MEAN_ELEMENT_THEORY = SGP/SGP4

EPOCH          = 2025-11-24T03:27:48.103200
MEAN_MOTION    = 14.81546900
ECCENTRICITY   = .0013683
INCLINATION    = 98.0150
RA_OF_ASC_NODE = 22.2920
ARG_OF_PERICENTER = 237.0920
MEAN_ANOMALY   = 122.8977

EPHEMERIS_TYPE = 0
CLASSIFICATION_TYPE = U
NORAD_CAT_ID   = 25861
ELEMENT_SET_NO = 999
REV_AT_EPOCH   = 42123
BSTAR          = .10359E-3
MEAN_MOTION_DOT = .76E-5
MEAN_MOTION_DDOT = 0

CCSDS_OMM_VERS = 2.0
CREATION_DATE  = 
ORIGINATOR     = 

OBJECT_NAME    = DELTA 2 R/B
OBJECT_ID      = 1999-041E
CENTER_NAME    = EARTH
REF_FRAME      = TEME
TIME_SYSTEM    = UTC
MEAN_ELEMENT_THEORY = SGP/SGP4

EPOCH          = 2025-11-24T02:08:54.369024
MEAN_MOTION    = 14.11332653
ECCENTRICITY   = .0504906
INCLINATION    = 51.7628
RA_OF_ASC_NODE = 2.8917
ARG_OF_PERICENTER = 36.8093
MEAN_ANOMALY   = 326.6414

EPHEMERIS_TYPE = 0
CLASSIFICATION_TYPE = U
NORAD_CAT_ID   = 25876
ELEMENT_SET_NO = 999
REV_AT_EPOCH   = 34811
BSTAR          = .20179E-3
MEAN_MOTION_DOT = .1006E-4
MEAN_MOTION_DDOT = 0

CCSDS_OMM_VERS = 2.0
CREATION_DATE  = 
ORIGINATOR     = 

OBJECT_NAME    = HELIOS 1B
OBJECT_ID      = 1999-064A
CENTER_NAME    = EARTH
REF_FRAME      = TEME
TIME_SYSTEM    = UTC
MEAN_ELEMENT_THEORY = SGP/SGP4

EPOCH          = 2025-11-23T18:18:54.076032
MEAN_MOTION    = 14.87167648
ECCENTRICITY   = .0002451
INCLINATION    = 98.1752
RA_OF_ASC_NODE = 221.8674
ARG_OF_PERICENTER = 68.8631
MEAN_ANOMALY   = 291.2845

EPHEMERIS_TYPE = 0
CLASSIFICATION_TYPE = U
NORAD_CAT_ID   = 25977
ELEMENT_SET_NO = 999
REV_AT_EPOCH   = 66951
BSTAR          = .22102E-3
MEAN_MOTION_DOT = .1929E-4
MEAN_MOTION_DDOT = 0

CCSDS_OMM_VERS = 2.0
CREATION_DATE  = 
ORIGINATOR     = 

OBJECT_NAME    = TERRA
OBJECT_ID      = 1999-068A
CENTER_NAME    = EARTH
REF_FRAME      = TEME
TIME_SYSTEM    = UTC
MEAN_ELEMENT_THEORY = SGP/SGP4

EPOCH          = 2025-11-24T02:37:04.462752
MEAN_MOTION    = 14.60921125
ECCENTRICITY   = .0003055
INCLINATION    = 97.9773
RA_OF_ASC_NODE = 20.4742
ARG_OF_PERICENTER = 135.8826
MEAN_ANOMALY   = 308.4277

EPHEMERIS_TYPE = 0
CLASSIFICATION_TYPE = U
NORAD_CAT_ID   = 25994
ELEMENT_SET_NO = 999
REV_AT_EPOCH   = 37966
BSTAR          = .12878E-3
MEAN_MOTION_DOT = .586E-5
MEAN_MOTION_DDOT = 0

CCSDS_OMM_VERS = 2.0
CREATION_DATE  = 
ORIGINATOR     = 

OBJECT_NAME    = SL-16 R/B
OBJECT_ID      = 2000-006B
CENTER_NAME    = EARTH
REF_FRAME      = TEME
TIME_SYSTEM    = UTC
MEAN_ELEMENT_THEORY = SGP/SGP4

EPOCH          = 2025-11-24T00:50:01.777056
MEAN_MOTION    = 14.15801524
ECCENTRICITY   = .0017417
INCLINATION    = 71.0017
RA_OF_ASC_NODE = 319.9878
ARG_OF_PERICENTER = 334.9364
MEAN_ANOMALY   = 25.0912

EPHEMERIS_TYPE = 0
CLASSIFICATION_TYPE = U
NORAD_CAT_ID   = 26070
ELEMENT_SET_NO = 999
REV_AT_EPOCH   = 33360
BSTAR          = .63609E-4
MEAN_MOTION_DOT = .77E-6
MEAN_MOTION_DDOT = 0

CCSDS_OMM_VERS = 2.0
CREATION_DATE  = 
ORIGINATOR     = 

OBJECT_NAME    = TITAN 4B R/B
OBJECT_ID      = 2000-047B
CENTER_NAME    = EARTH
REF_FRAME      = TEME
TIME_SYSTEM    = UTC
MEAN_ELEMENT_THEORY = SGP/SGP4

EPOCH          = 2025-11-24T01:08:02.318784
MEAN_MOTION    = 15.08584870
ECCENTRICITY   = .0040559
INCLINATION    = 67.9901
RA_OF_ASC_NODE = 337.3456
ARG_OF_PERICENTER = 166.7825
MEAN_ANOMALY   = 193.4397

EPHEMERIS_TYPE = 0
CLASSIFICATION_TYPE = U
NORAD_CAT_ID   = 26474
ELEMENT_SET_NO = 999
REV_AT_EPOCH   = 37697
BSTAR          = .24121E-3
MEAN_MOTION_DOT = .3716E-4
MEAN_MOTION_DDOT = 0

